1 25338U 98030A   25046.79611270  .00000322  00000-0  15040-3 0  9991
2 25338  98.5483  74.6010 0009710 338.1760  21.9006 14.26883786392176
